STARLINK-36258
1 67104U 25299C   26061.16668981 -.02363326  00000+0 -86758-1 0  9996
2 67104  43.0015 211.7033 0001934 282.4481  58.5849 15.31116243  5894
